[{"OBJECT_NAME":"STARLINK-2380","OBJECT_ID":"2021-018N","EPOCH":"2024-01-08T17:51:48.110976","MEAN_MOTION":15.06401828,"ECCENTRICITY":0.0001396,"INCLINATION":53.0533,"RA_OF_ASC_NODE":182.3112,"ARG_OF_PERICENTER":91.2645,"MEAN_ANOMALY":268.8504,"EPHEMERIS_TYPE":0,"CLASSIFICATION_TYPE":"U","NORAD_CAT_ID":47799,"ELEMENT_SET_NO":999,"REV_AT_EPOCH":15765,"BSTAR":8.0629e-5,"MEAN_MOTION_DOT":9.2e-6,"MEAN_MOTION_DDOT":0},{"OBJECT_NAME":"STARLINK-2381","OBJECT_ID":"2021-018P","EPOCH":"2024-01-08T18:23:38.565312","MEAN_MOTION":15.06404904,"ECCENTRICITY":0.0001493,"INCLINATION":53.0535,"RA_OF_ASC_NODE":182.2117,"ARG_OF_PERICENTER":102.0763,"MEAN_ANOMALY":258.0393,"EPHEMERIS_TYPE":0,"CLASSIFICATION_TYPE":"U","NORAD_CAT_ID":47800,"ELEMENT_SET_NO":999,"REV_AT_EPOCH":15766,"BSTAR":5.4637e-5,"MEAN_MOTION_DOT":5.33e-6,"MEAN_MOTION_DDOT":0},{"OBJECT_NAME":"STARLINK-2382","OBJECT_ID":"2021-018Q","EPOCH":"2024-01-08T19:13:24.881952","MEAN_MOTION":15.06409118,"ECCENTRICITY":0.0001339,"INCLINATION":53.0536,"RA_OF_ASC_NODE":187.1405,"ARG_OF_PERICENTER":91.0919,"MEAN_ANOMALY":269.0224,"EPHEMERIS_TYPE":0,"CLASSIFICATION_TYPE":"U","NORAD_CAT_ID":47801,"ELEMENT_SET_NO":999,"REV_AT_EPOCH":15760,"BSTAR":0.00010985,"MEAN_MOTION_DOT":1.356e-5,"MEAN_MOTION_DDOT":0},{"OBJECT_NAME":"STARLINK-2383","OBJECT_ID":"2021-018R","EPOCH":"2024-01-08T20:19:44.990400","MEAN_MOTION":15.06402425,"ECCENTRICITY":0.0001569,"INCLINATION":53.0532,"RA_OF_ASC_NODE":206.8459,"ARG_OF_PERICENTER":96.4418,"MEAN_ANOMALY":263.6749,"EPHEMERIS_TYPE":0,"CLASSIFICATION_TYPE":"U","NORAD_CAT_ID":47802,"ELEMENT_SET_NO":999,"REV_AT_EPOCH":15733,"BSTAR":5.2863e-5,"MEAN_MOTION_DOT":5.06e-6,"MEAN_MOTION_DDOT":0},{"OBJECT_NAME":"STARLINK-2384","OBJECT_ID":"2021-018S","EPOCH":"2024-01-08T18:39:34.017984","MEAN_MOTION":15.06400886,"ECCENTRICITY":0.0001313,"INCLINATION":53.0542,"RA_OF_ASC_NODE":182.1621,"ARG_OF_PERICENTER":91.635,"MEAN_ANOMALY":268.4789,"EPHEMERIS_TYPE":0,"CLASSIFICATION_TYPE":"U","NORAD_CAT_ID":47803,"ELEMENT_SET_NO":999,"REV_AT_EPOCH":15766,"BSTAR":6.6461e-5,"MEAN_MOTION_DOT":7.09e-6,"MEAN_MOTION_DDOT":0},{"OBJECT_NAME":"STARLINK-2385","OBJECT_ID":"2021-018T","EPOCH":"2024-01-08T19:00:48.492288","MEAN_MOTION":15.06399417,"ECCENTRICITY":0.0001318,"INCLINATION":53.0541,"RA_OF_ASC_NODE":182.0963,"ARG_OF_PERICENTER":90.7891,"MEAN_ANOMALY":269.3249,"EPHEMERIS_TYPE":0,"CLASSIFICATION_TYPE":"U","NORAD_CAT_ID":47804,"ELEMENT_SET_NO":999,"REV_AT_EPOCH":15766,"BSTAR":6.6249e-5,"MEAN_MOTION_DOT":7.05e-6,"MEAN_MOTION_DDOT":0},{"OBJECT_NAME":"STARLINK-2386","OBJECT_ID":"2021-018U","EPOCH":"2024-01-08T16:37:32.080224","MEAN_MOTION":15.06402155,"ECCENTRICITY":0.0001454,"INCLINATION":53.054,"RA_OF_ASC_NODE":182.7812,"ARG_OF_PERICENTER":94.4778,"MEAN_ANOMALY":265.6377,"EPHEMERIS_TYPE":0,"CLASSIFICATION_TYPE":"U","NORAD_CAT_ID":47805,"ELEMENT_SET_NO":999,"REV_AT_EPOCH":15765,"BSTAR":0.00011075,"MEAN_MOTION_DOT":1.369e-5,"MEAN_MOTION_DDOT":0},{"OBJECT_NAME":"STARLINK-2387","OBJECT_ID":"2021-018V","EPOCH":"2024-01-08T19:54:32.940288","MEAN_MOTION":15.06417556,"ECCENTRICITY":0.0001415,"INCLINATION":53.0522,"RA_OF_ASC_NODE":196.9387,"ARG_OF_PERICENTER":89.2732,"MEAN_ANOMALY":270.842,"EPHEMERIS_TYPE":0,"CLASSIFICATION_TYPE":"U","NORAD_CAT_ID":47806,"ELEMENT_SET_NO":999,"REV_AT_EPOCH":15752,"BSTAR":0.00025928,"MEAN_MOTION_DOT":3.584e-5,"MEAN_MOTION_DDOT":0},{"OBJECT_NAME":"STARLINK-2388","OBJECT_ID":"2021-018W","EPOCH":"2024-01-08T16:28:11.947296","MEAN_MOTION":15.0640303,"ECCENTRICITY":0.0001393,"INCLINATION":53.0549,"RA_OF_ASC_NODE":172.5727,"ARG_OF_PERICENTER":101.8353,"MEAN_ANOMALY":258.2792,"EPHEMERIS_TYPE":0,"CLASSIFICATION_TYPE":"U","NORAD_CAT_ID":47807,"ELEMENT_SET_NO":999,"REV_AT_EPOCH":15778,"BSTAR":6.6326e-5,"MEAN_MOTION_DOT":7.07e-6,"MEAN_MOTION_DDOT":0},{"OBJECT_NAME":"STARLINK-2389","OBJECT_ID":"2021-018X","EPOCH":"2024-01-08T18:45:32.779296","MEAN_MOTION":15.06402314,"ECCENTRICITY":0.0001375,"INCLINATION":53.0539,"RA_OF_ASC_NODE":197.1444,"ARG_OF_PERICENTER":84.5499,"MEAN_ANOMALY":275.5646,"EPHEMERIS_TYPE":0,"CLASSIFICATION_TYPE":"U","NORAD_CAT_ID":47808,"ELEMENT_SET_NO":999,"REV_AT_EPOCH":15751,"BSTAR":0.0001269,"MEAN_MOTION_DOT":1.609e-5,"MEAN_MOTION_DDOT":0},{"OBJECT_NAME":"STARLINK-2391","OBJECT_ID":"2021-018Z","EPOCH":"2024-01-08T21:04:12.351072","MEAN_MOTION":15.06403491,"ECCENTRICITY":0.0001589,"INCLINATION":53.0541,"RA_OF_ASC_NODE":211.7091,"ARG_OF_PERICENTER":86.4598,"MEAN_ANOMALY":273.6572,"EPHEMERIS_TYPE":0,"CLASSIFICATION_TYPE":"U","NORAD_CAT_ID":47810,"ELEMENT_SET_NO":999,"REV_AT_EPOCH":15691,"BSTAR":7.8409e-5,"MEAN_MOTION_DOT":8.87e-6,"MEAN_MOTION_DDOT":0},{"OBJECT_NAME":"STARLINK-2392","OBJECT_ID":"2021-018AA","EPOCH":"2024-01-08T18:50:11.028768","MEAN_MOTION":15.06404046,"ECCENTRICITY":0.0001393,"INCLINATION":53.0539,"RA_OF_ASC_NODE":182.1259,"ARG_OF_PERICENTER":98.2546,"MEAN_ANOMALY":261.8601,"EPHEMERIS_TYPE":0,"CLASSIFICATION_TYPE":"U","NORAD_CAT_ID":47811,"ELEMENT_SET_NO":999,"REV_AT_EPOCH":15772,"BSTAR":7.7466e-5,"MEAN_MOTION_DOT":8.73e-6,"MEAN_MOTION_DDOT":0},{"OBJECT_NAME":"STARLINK-2393","OBJECT_ID":"2021-018AB","EPOCH":"2024-01-08T19:44:37.372128","MEAN_MOTION":15.06409654,"ECCENTRICITY":0.0001729,"INCLINATION":53.0525,"RA_OF_ASC_NODE":211.9599,"ARG_OF_PERICENTER":91.8847,"MEAN_ANOMALY":268.234,"EPHEMERIS_TYPE":0,"CLASSIFICATION_TYPE":"U","NORAD_CAT_ID":47812,"ELEMENT_SET_NO":999,"REV_AT_EPOCH":15724,"BSTAR":0.00041521,"MEAN_MOTION_DOT":5.91e-5,"MEAN_MOTION_DDOT":0},{"OBJECT_NAME":"STARLINK-2394","OBJECT_ID":"2021-018AC","EPOCH":"2024-01-08T17:46:29.622432","MEAN_MOTION":15.06402337,"ECCENTRICITY":0.000139,"INCLINATION":53.0536,"RA_OF_ASC_NODE":182.3255,"ARG_OF_PERICENTER":89.3086,"MEAN_ANOMALY":270.8063,"EPHEMERIS_TYPE":0,"CLASSIFICATION_TYPE":"U","NORAD_CAT_ID":47813,"ELEMENT_SET_NO":999,"REV_AT_EPOCH":15731,"BSTAR":0.00010736,"MEAN_MOTION_DOT":1.318e-5,"MEAN_MOTION_DDOT":0},{"OBJECT_NAME":"STARLINK-2395","OBJECT_ID":"2021-018AD","EPOCH":"2024-01-08T18:03:41.458752","MEAN_MOTION":15.06401507,"ECCENTRICITY":0.0001495,"INCLINATION":53.0537,"RA_OF_ASC_NODE":202.1483,"ARG_OF_PERICENTER":99.1126,"MEAN_ANOMALY":261.0032,"EPHEMERIS_TYPE":0,"CLASSIFICATION_TYPE":"U","NORAD_CAT_ID":47814,"ELEMENT_SET_NO":999,"REV_AT_EPOCH":15705,"BSTAR":9.157e-5,"MEAN_MOTION_DOT":1.083e-5,"MEAN_MOTION_DDOT":0},{"OBJECT_NAME":"STARLINK-2396","OBJECT_ID":"2021-018AE","EPOCH":"2024-01-08T19:06:47.316672","MEAN_MOTION":15.0640215,"ECCENTRICITY":0.000148,"INCLINATION":53.0536,"RA_OF_ASC_NODE":197.073,"ARG_OF_PERICENTER":96.4637,"MEAN_ANOMALY":263.6521,"EPHEMERIS_TYPE":0,"CLASSIFICATION_TYPE":"U","NORAD_CAT_ID":47815,"ELEMENT_SET_NO":999,"REV_AT_EPOCH":15745,"BSTAR":0.00015237,"MEAN_MOTION_DOT":1.989e-5,"MEAN_MOTION_DDOT":0},{"OBJECT_NAME":"STARLINK-2399","OBJECT_ID":"2021-018AF","EPOCH":"2024-01-08T19:19:22.996992","MEAN_MOTION":15.06401906,"ECCENTRICITY":0.0001655,"INCLINATION":53.0537,"RA_OF_ASC_NODE":202.0346,"ARG_OF_PERICENTER":89.4796,"MEAN_ANOMALY":270.6383,"EPHEMERIS_TYPE":0,"CLASSIFICATION_TYPE":"U","NORAD_CAT_ID":47816,"ELEMENT_SET_NO":999,"REV_AT_EPOCH":15705,"BSTAR":7.0584e-5,"MEAN_MOTION_DOT":7.7e-6,"MEAN_MOTION_DDOT":0},{"OBJECT_NAME":"STARLINK-2400","OBJECT_ID":"2021-018AG","EPOCH":"2024-01-08T18:10:22.922400","MEAN_MOTION":15.06399744,"ECCENTRICITY":0.0001503,"INCLINATION":53.0535,"RA_OF_ASC_NODE":202.2528,"ARG_OF_PERICENTER":100.43,"MEAN_ANOMALY":259.6858,"EPHEMERIS_TYPE":0,"CLASSIFICATION_TYPE":"U","NORAD_CAT_ID":47817,"ELEMENT_SET_NO":999,"REV_AT_EPOCH":15737,"BSTAR":8.7498e-5,"MEAN_MOTION_DOT":1.022e-5,"MEAN_MOTION_DDOT":0},{"OBJECT_NAME":"STARLINK-2401","OBJECT_ID":"2021-018AH","EPOCH":"2024-01-08T19:53:19.150368","MEAN_MOTION":15.06402952,"ECCENTRICITY":0.0001626,"INCLINATION":53.0539,"RA_OF_ASC_NODE":207.392,"ARG_OF_PERICENTER":94.2714,"MEAN_ANOMALY":265.8461,"EPHEMERIS_TYPE":0,"CLASSIFICATION_TYPE":"U","NORAD_CAT_ID":47818,"ELEMENT_SET_NO":999,"REV_AT_EPOCH":15731,"BSTAR":0.00017879,"MEAN_MOTION_DOT":2.383e-5,"MEAN_MOTION_DDOT":0},{"OBJECT_NAME":"STARLINK-2402","OBJECT_ID":"2021-018AJ","EPOCH":"2024-01-08T18:14:19.418208","MEAN_MOTION":15.06409261,"ECCENTRICITY":0.0001437,"INCLINATION":53.0548,"RA_OF_ASC_NODE":202.2277,"ARG_OF_PERICENTER":102.1379,"MEAN_ANOMALY":257.9771,"EPHEMERIS_TYPE":0,"CLASSIFICATION_TYPE":"U","NORAD_CAT_ID":47819,"ELEMENT_SET_NO":999,"REV_AT_EPOCH":15744,"BSTAR":-0.0001245,"MEAN_MOTION_DOT":-2.136e-5,"MEAN_MOTION_DDOT":0},{"OBJECT_NAME":"STARLINK-2403","OBJECT_ID":"2021-018AK","EPOCH":"2024-01-08T20:58:54.476832","MEAN_MOTION":15.06402798,"ECCENTRICITY":0.0001319,"INCLINATION":53.0533,"RA_OF_ASC_NODE":211.7255,"ARG_OF_PERICENTER":90.1034,"MEAN_ANOMALY":270.0107,"EPHEMERIS_TYPE":0,"CLASSIFICATION_TYPE":"U","NORAD_CAT_ID":47820,"ELEMENT_SET_NO":999,"REV_AT_EPOCH":15692,"BSTAR":5.4397e-5,"MEAN_MOTION_DOT":5.29e-6,"MEAN_MOTION_DDOT":0},{"OBJECT_NAME":"STARLINK-2406","OBJECT_ID":"2021-018AL","EPOCH":"2024-01-08T20:28:23.167488","MEAN_MOTION":15.06400596,"ECCENTRICITY":0.0001401,"INCLINATION":53.0534,"RA_OF_ASC_NODE":201.833,"ARG_OF_PERICENTER":86.4641,"MEAN_ANOMALY":273.6509,"EPHEMERIS_TYPE":0,"CLASSIFICATION_TYPE":"U","NORAD_CAT_ID":47821,"ELEMENT_SET_NO":999,"REV_AT_EPOCH":15706,"BSTAR":8.4128e-5,"MEAN_MOTION_DOT":9.72e-6,"MEAN_MOTION_DDOT":0},{"OBJECT_NAME":"STARLINK-2407","OBJECT_ID":"2021-018AM","EPOCH":"2024-01-08T19:06:04.262688","MEAN_MOTION":15.06401589,"ECCENTRICITY":0.0001512,"INCLINATION":53.0537,"RA_OF_ASC_NODE":212.0665,"ARG_OF_PERICENTER":103.2262,"MEAN_ANOMALY":256.8896,"EPHEMERIS_TYPE":0,"CLASSIFICATION_TYPE":"U","NORAD_CAT_ID":47822,"ELEMENT_SET_NO":999,"REV_AT_EPOCH":15725,"BSTAR":6.7078e-5,"MEAN_MOTION_DOT":7.18e-6,"MEAN_MOTION_DDOT":0}]
